LANDSAT 8               
1 39084U 13008A   26117.27819882  .00000357  00000+0  89290-4 0  9994
2 39084  98.1849 188.1859 0001220 101.9347 258.1988 14.57132754690482
SARAL                   
1 39086U 13009A   26117.27378113  .00000126  00000+0  62129-4 0  9990
2 39086  98.5565 304.4841 0002986  81.5376 278.6147 14.32843154688311
GAOFEN-1                
1 39150U 13018A   26117.30524414  .00000921  00000+0  13913-3 0  9992
2 39150  97.9110 190.4016 0018430  71.6599 288.6614 14.76518101700737
VNREDSAT 1              
1 39160U 13021B   26117.26840675  .00000612  00000+0  12274-3 0  9998
2 39160  97.9124 172.6289 0001244  90.5577 269.5769 14.64952677692835
ARIRANG-5 (KOMPSAT-5)   
1 39227U 13042A   26117.28727822  .00000680  00000+0  52943-4 0  9998
2 39227  97.6208 304.7004 0002595 339.7620  20.3502 15.04500751696209
SKYSAT-A                
1 39418U 13066C   26117.12839838  .00003213  00000+0  18619-3 0  9996
2 39418  97.3864 168.1515 0022979 128.6265 231.7029 15.12672620680763
DUBAISAT-2              
1 39419U 13066D   26117.24344200  .00005559  00000+0  34738-3 0  9999
2 39419  97.4563 108.7424 0010385 200.1628 159.9193 15.09805236678708
GPM-CORE                
1 39574U 14009C   26117.26628795  .00008287  00000+0  18158-3 0  9994
2 39574  64.9708 118.7684 0012198 260.6469  99.3293 15.44672095689947
SENTINEL-1A             
1 39634U 14016A   26117.28180642  .00000453  00000+0  10580-3 0  9993
2 39634  98.1803 125.5551 0001407  82.4783 277.6576 14.59201293642596
KAZEOSAT 1              
1 39731U 14024A   26117.30115594  .00000294  00000+0  10265-3 0  9990
2 39731  98.3219 191.0094 0001451  98.6944 261.4410 14.42059167631223
ALOS-2                  
1 39766U 14029A   26117.27927154 -.00000329  00000+0 -37132-4 0  9996
2 39766  97.9198 215.1714 0001685  85.6597 274.4807 14.79476909644054
KAZEOSAT 2              
1 40010U 14033A   26117.30457056  .00000469  00000+0  60216-4 0  9990
2 40010  97.5453 319.5960 0009796 121.7223 238.4949 14.85406451641404
HODOYOSHI-4             
1 40011U 14033B   26117.26572672  .00001585  00000+0  17739-3 0  9999
2 40011  97.5462 304.5498 0025050 113.1093 247.2768 14.88000504641236
DEIMOS-2                
1 40013U 14033D   26117.26950772  .00001904  00000+0  18572-3 0  9993
2 40013  97.5899 353.5327 0002237 101.9435 258.2037 14.93578916630124
HODOYOSHI-3             
1 40015U 14033F   26117.18860562  .00001308  00000+0  15695-3 0  9994
2 40015  97.6373 282.2995 0033473 160.2017 200.0507 14.85271771640053
SPOT 7                  
1 40053U 14034A   26117.29341519  .00000532  00000+0  11798-3 0  9993
2 40053  98.0661 181.0893 0001543  79.0750 281.0625 14.60912504629705
SKYSAT-B                
1 40072U 14037D   26117.15197601  .00001476  00000+0  16797-3 0  9995
2 40072  98.3800  73.2263 0007019  84.7149 275.4866 14.87888567638373
