[{"OBJECT_NAME":"LANDSAT 8","OBJECT_ID":"2013-008A","EPOCH":"2026-04-27T06:40:36.378048","MEAN_MOTION":14.57132754,"ECCENTRICITY":0.00012206,"INCLINATION":98.1849,"RA_OF_ASC_NODE":188.1859,"ARG_OF_PERICENTER":101.9347,"MEAN_ANOMALY":258.1988,"EPHEMERIS_TYPE":0,"CLASSIFICATION_TYPE":"U","NORAD_CAT_ID":39084,"ELEMENT_SET_NO":999,"REV_AT_EPOCH":69048,"BSTAR":8.9289634e-5,"MEAN_MOTION_DOT":3.57e-6,"MEAN_MOTION_DDOT":0},{"OBJECT_NAME":"SARAL","OBJECT_ID":"2013-009A","EPOCH":"2026-04-27T06:34:14.689632","MEAN_MOTION":14.32843154,"ECCENTRICITY":0.00029866,"INCLINATION":98.5565,"RA_OF_ASC_NODE":304.4841,"ARG_OF_PERICENTER":81.5376,"MEAN_ANOMALY":278.6147,"EPHEMERIS_TYPE":0,"CLASSIFICATION_TYPE":"U","NORAD_CAT_ID":39086,"ELEMENT_SET_NO":999,"REV_AT_EPOCH":68831,"BSTAR":6.2129376e-5,"MEAN_MOTION_DOT":1.26e-6,"MEAN_MOTION_DDOT":0},{"OBJECT_NAME":"GAOFEN-1","OBJECT_ID":"2013-018A","EPOCH":"2026-04-27T07:19:33.093696","MEAN_MOTION":14.76518101,"ECCENTRICITY":0.00184302,"INCLINATION":97.911,"RA_OF_ASC_NODE":190.4016,"ARG_OF_PERICENTER":71.6599,"MEAN_ANOMALY":288.6614,"EPHEMERIS_TYPE":0,"CLASSIFICATION_TYPE":"U","NORAD_CAT_ID":39150,"ELEMENT_SET_NO":999,"REV_AT_EPOCH":70073,"BSTAR":0.00013912786,"MEAN_MOTION_DOT":9.21e-6,"MEAN_MOTION_DDOT":0},{"OBJECT_NAME":"VNREDSAT 1","OBJECT_ID":"2013-021B","EPOCH":"2026-04-27T06:26:30.343200","MEAN_MOTION":14.64952677,"ECCENTRICITY":0.00012443,"INCLINATION":97.9124,"RA_OF_ASC_NODE":172.6289,"ARG_OF_PERICENTER":90.5577,"MEAN_ANOMALY":269.5769,"EPHEMERIS_TYPE":0,"CLASSIFICATION_TYPE":"U","NORAD_CAT_ID":39160,"ELEMENT_SET_NO":999,"REV_AT_EPOCH":69283,"BSTAR":0.00012273831,"MEAN_MOTION_DOT":6.12e-6,"MEAN_MOTION_DDOT":0},{"OBJECT_NAME":"ARIRANG-5 (KOMPSAT-5)","OBJECT_ID":"2013-042A","EPOCH":"2026-04-27T06:53:40.838208","MEAN_MOTION":15.04500751,"ECCENTRICITY":0.00025951,"INCLINATION":97.6208,"RA_OF_ASC_NODE":304.7004,"ARG_OF_PERICENTER":339.762,"MEAN_ANOMALY":20.3502,"EPHEMERIS_TYPE":0,"CLASSIFICATION_TYPE":"U","NORAD_CAT_ID":39227,"ELEMENT_SET_NO":999,"REV_AT_EPOCH":69620,"BSTAR":5.294269e-5,"MEAN_MOTION_DOT":6.8e-6,"MEAN_MOTION_DDOT":0},{"OBJECT_NAME":"SKYSAT-A","OBJECT_ID":"2013-066C","EPOCH":"2026-04-27T03:04:53.620032","MEAN_MOTION":15.1267262,"ECCENTRICITY":0.00229795,"INCLINATION":97.3864,"RA_OF_ASC_NODE":168.1515,"ARG_OF_PERICENTER":128.6265,"MEAN_ANOMALY":231.7029,"EPHEMERIS_TYPE":0,"CLASSIFICATION_TYPE":"U","NORAD_CAT_ID":39418,"ELEMENT_SET_NO":999,"REV_AT_EPOCH":68076,"BSTAR":0.0001861898,"MEAN_MOTION_DOT":3.213e-5,"MEAN_MOTION_DDOT":0},{"OBJECT_NAME":"DUBAISAT-2","OBJECT_ID":"2013-066D","EPOCH":"2026-04-27T05:50:33.388800","MEAN_MOTION":15.09805236,"ECCENTRICITY":0.00103856,"INCLINATION":97.4563,"RA_OF_ASC_NODE":108.7424,"ARG_OF_PERICENTER":200.1628,"MEAN_ANOMALY":159.9193,"EPHEMERIS_TYPE":0,"CLASSIFICATION_TYPE":"U","NORAD_CAT_ID":39419,"ELEMENT_SET_NO":999,"REV_AT_EPOCH":67870,"BSTAR":0.00034738366,"MEAN_MOTION_DOT":5.559e-5,"MEAN_MOTION_DDOT":0},{"OBJECT_NAME":"GPM-CORE","OBJECT_ID":"2014-009C","EPOCH":"2026-04-27T06:23:27.278880","MEAN_MOTION":15.44672095,"ECCENTRICITY":0.00121986,"INCLINATION":64.9708,"RA_OF_ASC_NODE":118.7684,"ARG_OF_PERICENTER":260.6469,"MEAN_ANOMALY":99.3293,"EPHEMERIS_TYPE":0,"CLASSIFICATION_TYPE":"U","NORAD_CAT_ID":39574,"ELEMENT_SET_NO":999,"REV_AT_EPOCH":68994,"BSTAR":0.00018158146,"MEAN_MOTION_DOT":8.287e-5,"MEAN_MOTION_DDOT":0},{"OBJECT_NAME":"SENTINEL-1A","OBJECT_ID":"2014-016A","EPOCH":"2026-04-27T06:45:48.074688","MEAN_MOTION":14.59201293,"ECCENTRICITY":0.00014079,"INCLINATION":98.1803,"RA_OF_ASC_NODE":125.5551,"ARG_OF_PERICENTER":82.4783,"MEAN_ANOMALY":277.6576,"EPHEMERIS_TYPE":0,"CLASSIFICATION_TYPE":"U","NORAD_CAT_ID":39634,"ELEMENT_SET_NO":999,"REV_AT_EPOCH":64259,"BSTAR":0.00010579992,"MEAN_MOTION_DOT":4.53e-6,"MEAN_MOTION_DDOT":0},{"OBJECT_NAME":"KAZEOSAT 1","OBJECT_ID":"2014-024A","EPOCH":"2026-04-27T07:13:39.873216","MEAN_MOTION":14.42059167,"ECCENTRICITY":0.00014511,"INCLINATION":98.3219,"RA_OF_ASC_NODE":191.0094,"ARG_OF_PERICENTER":98.6944,"MEAN_ANOMALY":261.441,"EPHEMERIS_TYPE":0,"CLASSIFICATION_TYPE":"U","NORAD_CAT_ID":39731,"ELEMENT_SET_NO":999,"REV_AT_EPOCH":63122,"BSTAR":0.00010264533,"MEAN_MOTION_DOT":2.94e-6,"MEAN_MOTION_DDOT":0},{"OBJECT_NAME":"ALOS-2","OBJECT_ID":"2014-029A","EPOCH":"2026-04-27T06:42:09.061056","MEAN_MOTION":14.79476909,"ECCENTRICITY":0.00016851,"INCLINATION":97.9198,"RA_OF_ASC_NODE":215.1714,"ARG_OF_PERICENTER":85.6597,"MEAN_ANOMALY":274.4807,"EPHEMERIS_TYPE":0,"CLASSIFICATION_TYPE":"U","NORAD_CAT_ID":39766,"ELEMENT_SET_NO":999,"REV_AT_EPOCH":64405,"BSTAR":-3.7132242e-5,"MEAN_MOTION_DOT":-3.29e-6,"MEAN_MOTION_DDOT":0},{"OBJECT_NAME":"KAZEOSAT 2","OBJECT_ID":"2014-033A","EPOCH":"2026-04-27T07:18:34.896384","MEAN_MOTION":14.85406451,"ECCENTRICITY":0.00097961,"INCLINATION":97.5453,"RA_OF_ASC_NODE":319.596,"ARG_OF_PERICENTER":121.7223,"MEAN_ANOMALY":238.4949,"EPHEMERIS_TYPE":0,"CLASSIFICATION_TYPE":"U","NORAD_CAT_ID":40010,"ELEMENT_SET_NO":999,"REV_AT_EPOCH":64140,"BSTAR":6.0215546e-5,"MEAN_MOTION_DOT":4.69e-6,"MEAN_MOTION_DDOT":0},{"OBJECT_NAME":"HODOYOSHI-4","OBJECT_ID":"2014-033B","EPOCH":"2026-04-27T06:22:38.788608","MEAN_MOTION":14.88000504,"ECCENTRICITY":0.00250501,"INCLINATION":97.5462,"RA_OF_ASC_NODE":304.5498,"ARG_OF_PERICENTER":113.1093,"MEAN_ANOMALY":247.2768,"EPHEMERIS_TYPE":0,"CLASSIFICATION_TYPE":"U","NORAD_CAT_ID":40011,"ELEMENT_SET_NO":999,"REV_AT_EPOCH":64123,"BSTAR":0.00017738966,"MEAN_MOTION_DOT":1.585e-5,"MEAN_MOTION_DDOT":0},{"OBJECT_NAME":"DEIMOS-2","OBJECT_ID":"2014-033D","EPOCH":"2026-04-27T06:28:05.467008","MEAN_MOTION":14.93578916,"ECCENTRICITY":0.00022371,"INCLINATION":97.5899,"RA_OF_ASC_NODE":353.5327,"ARG_OF_PERICENTER":101.9435,"MEAN_ANOMALY":258.2037,"EPHEMERIS_TYPE":0,"CLASSIFICATION_TYPE":"U","NORAD_CAT_ID":40013,"ELEMENT_SET_NO":999,"REV_AT_EPOCH":63012,"BSTAR":0.0001857195,"MEAN_MOTION_DOT":1.904e-5,"MEAN_MOTION_DDOT":0},{"OBJECT_NAME":"HODOYOSHI-3","OBJECT_ID":"2014-033F","EPOCH":"2026-04-27T04:31:35.525568","MEAN_MOTION":14.85271771,"ECCENTRICITY":0.00334737,"INCLINATION":97.6373,"RA_OF_ASC_NODE":282.2995,"ARG_OF_PERICENTER":160.2017,"MEAN_ANOMALY":200.0507,"EPHEMERIS_TYPE":0,"CLASSIFICATION_TYPE":"U","NORAD_CAT_ID":40015,"ELEMENT_SET_NO":999,"REV_AT_EPOCH":64005,"BSTAR":0.00015694806,"MEAN_MOTION_DOT":1.308e-5,"MEAN_MOTION_DDOT":0},{"OBJECT_NAME":"SPOT 7","OBJECT_ID":"2014-034A","EPOCH":"2026-04-27T07:02:31.072416","MEAN_MOTION":14.60912504,"ECCENTRICITY":0.00015438,"INCLINATION":98.0661,"RA_OF_ASC_NODE":181.0893,"ARG_OF_PERICENTER":79.075,"MEAN_ANOMALY":281.0625,"EPHEMERIS_TYPE":0,"CLASSIFICATION_TYPE":"U","NORAD_CAT_ID":40053,"ELEMENT_SET_NO":999,"REV_AT_EPOCH":62970,"BSTAR":0.00011798126,"MEAN_MOTION_DOT":5.32e-6,"MEAN_MOTION_DDOT":0},{"OBJECT_NAME":"SKYSAT-B","OBJECT_ID":"2014-037D","EPOCH":"2026-04-27T03:38:50.727264","MEAN_MOTION":14.87888567,"ECCENTRICITY":0.00070193,"INCLINATION":98.38,"RA_OF_ASC_NODE":73.2263,"ARG_OF_PERICENTER":84.7149,"MEAN_ANOMALY":275.4866,"EPHEMERIS_TYPE":0,"CLASSIFICATION_TYPE":"U","NORAD_CAT_ID":40072,"ELEMENT_SET_NO":999,"REV_AT_EPOCH":63837,"BSTAR":0.00016797424,"MEAN_MOTION_DOT":1.476e-5,"MEAN_MOTION_DDOT":0}]
